{"type": "FeatureCollection", "features": [ {"type": "Feature", "properties": {"norad_id": 66479, "name": "STARLINK-35581", "group": "last-30-days", "lat": -38.21370540776077, "lon": 63.587387521293856, "alt_km": 399.31145806268887, "timestamp": "2025-12-04T03:47:53.335796+00:00", "meta": {"OBJECT_NAME": "STARLINK-35581", "OBJECT_ID": "2025-262Z", "EPOCH": "2025-12-03T20:00:01.999008", "MEAN_MOTION": 15.58165718, "ECCENTRICITY": 0.0001426, "INCLINATION": 42.9999, "RA_OF_ASC_NODE": 123.1687, "ARG_OF_PERICENTER": 276.5083, "MEAN_ANOMALY": 354.5733, "EPHEMERIS_TYPE": 0, "CLASSIFICATION_TYPE": "U", "NORAD_CAT_ID": 66479, "ELEMENT_SET_NO": 999, "REV_AT_EPOCH": 420, "BSTAR": -0.030547, "MEAN_MOTION_DOT": -0.02106448, "MEAN_MOTION_DDOT": 0}, "tle": {"line1": "1 66479U 25262Z   25337.83335647 -.02106448  00000+0 -30547-1 0  9994", "line2": "2 66479  42.9999 123.1687 0001426 276.5083 354.5733 15.58165718  4201"}}, "geometry": {"type": "Point", "coordinates": [63.587387521293856, -38.21370540776077]}}, {"type": "Feature", "properties": {"norad_id": 66480, "name": "STARLINK-35670", "group": "last-30-days", "lat": -35.92954455959016, "lon": 70.18480041687859, "alt_km": 399.30701724220035, "timestamp": "2025-12-04T03:47:53.335810+00:00", "meta": {"OBJECT_NAME": "STARLINK-35670", "OBJECT_ID": "2025-262AA", "EPOCH": "2025-12-03T20:00:01.999008", "MEAN_MOTION": 15.5816163, "ECCENTRICITY": 0.0001369, "INCLINATION": 42.9997, "RA_OF_ASC_NODE": 123.1535, "ARG_OF_PERICENTER": 272.0854, "MEAN_ANOMALY": 4.7504, "EPHEMERIS_TYPE": 0, "CLASSIFICATION_TYPE": "U", "NORAD_CAT_ID": 66480, "ELEMENT_SET_NO": 999, "REV_AT_EPOCH": 420, "BSTAR": -0.030448, "MEAN_MOTION_DOT": -0.02100038, "MEAN_MOTION_DDOT": 0}, "tle": {"line1": "1 66480U 25262AA  25337.83335647 -.02100038  00000+0 -30448-1 0  9995", "line2": "2 66480  42.9997 123.1535 0001369 272.0854   4.7504 15.58161630  4205"}}, "geometry": {"type": "Point", "coordinates": [70.18480041687859, -35.92954455959016]}}, {"type": "Feature", "properties": {"norad_id": 66481, "name": "STARLINK-35698", "group": "last-30-days", "lat": -35.08895320525775, "lon": 72.29752711338821, "alt_km": 399.1442387031275, "timestamp": "2025-12-04T03:47:53.335820+00:00", "meta": {"OBJECT_NAME": "STARLINK-35698", "OBJECT_ID": "2025-262AB", "EPOCH": "2025-12-03T20:00:01.999008", "MEAN_MOTION": 15.58167118, "ECCENTRICITY": 0.0001536, "INCLINATION": 42.9996, "RA_OF_ASC_NODE": 123.1488, "ARG_OF_PERICENTER": 277.4605, "MEAN_ANOMALY": 1.2974, "EPHEMERIS_TYPE": 0, "CLASSIFICATION_TYPE": "U", "NORAD_CAT_ID": 66481, "ELEMENT_SET_NO": 999, "REV_AT_EPOCH": 420, "BSTAR": -0.030719, "MEAN_MOTION_DOT": -0.02117177, "MEAN_MOTION_DDOT": 0}, "tle": {"line1": "1 66481U 25262AB  25337.83335647 -.02117177  00000+0 -30719-1 0  9999", "line2": "2 66481  42.9996 123.1488 0001536 277.4605   1.2974 15.58167118  4201"}}, "geometry": {"type": "Point", "coordinates": [72.29752711338821, -35.08895320525775]}}, {"type": "Feature", "properties": {"norad_id": 66482, "name": "STARLINK-35648", "group": "last-30-days", "lat": -34.21456379430899, "lon": 74.36066799947362, "alt_km": 399.24066249459247, "timestamp": "2025-12-04T03:47:53.335832+00:00", "meta": {"OBJECT_NAME": "STARLINK-35648", "OBJECT_ID": "2025-262AC", "EPOCH": "2025-12-03T20:00:01.999008", "MEAN_MOTION": 15.58163213, "ECCENTRICITY": 0.0001378, "INCLINATION": 42.9994, "RA_OF_ASC_NODE": 123.144, "ARG_OF_PERICENTER": 272.7919, "MEAN_ANOMALY": 7.8782, "EPHEMERIS_TYPE": 0, "CLASSIFICATION_TYPE": "U", "NORAD_CAT_ID": 66482, "ELEMENT_SET_NO": 999, "REV_AT_EPOCH": 405, "BSTAR": -0.03051, "MEAN_MOTION_DOT": -0.02104002, "MEAN_MOTION_DDOT": 0}, "tle": {"line1": "1 66482U 25262AC  25337.83335647 -.02104002  00000+0 -30510-1 0  9992", "line2": "2 66482  42.9994 123.1440 0001378 272.7919   7.8782 15.58163213  4052"}}, "geometry": {"type": "Point", "coordinates": [74.36066799947362, -34.21456379430899]}}, {"type": "Feature", "properties": {"norad_id": 66483, "name": "STARLINK-35654", "group": "last-30-days", "lat": -33.30476449379608, "lon": 76.38354403021941, "alt_km": 399.1236443555763, "timestamp": "2025-12-04T03:47:53.335842+00:00", "meta": {"OBJECT_NAME": "STARLINK-35654", "OBJECT_ID": "2025-262AD", "EPOCH": "2025-12-03T20:00:01.999008", "MEAN_MOTION": 15.58164544, "ECCENTRICITY": 0.0001536, "INCLINATION": 42.9996, "RA_OF_ASC_NODE": 123.1383, "ARG_OF_PERICENTER": 271.8267, "MEAN_ANOMALY": 10.7589, "EPHEMERIS_TYPE": 0, "CLASSIFICATION_TYPE": "U", "NORAD_CAT_ID": 66483, "ELEMENT_SET_NO": 999, "REV_AT_EPOCH": 420, "BSTAR": -0.030518, "MEAN_MOTION_DOT": -0.02104657, "MEAN_MOTION_DDOT": 0}, "tle": {"line1": "1 66483U 25262AD  25337.83335647 -.02104657  00000+0 -30518-1 0  9997", "line2": "2 66483  42.9996 123.1383 0001536 271.8267  10.7589 15.58164544  4206"}}, "geometry": {"type": "Point", "coordinates": [76.38354403021941, -33.30476449379608]}}, {"type": "Feature", "properties": {"norad_id": 66484, "name": "STARLINK-35371", "group": "last-30-days", "lat": -32.36220620425785, "lon": 78.3664279728035, "alt_km": 399.1287854305792, "timestamp": "2025-12-04T03:47:53.335852+00:00", "meta": {"OBJECT_NAME": "STARLINK-35371", "OBJECT_ID": "2025-262AE", "EPOCH": "2025-12-03T20:00:01.999008", "MEAN_MOTION": 15.58160438, "ECCENTRICITY": 0.000139, "INCLINATION": 42.9996, "RA_OF_ASC_NODE": 123.1346, "ARG_OF_PERICENTER": 278.0771, "MEAN_ANOMALY": 6.4373, "EPHEMERIS_TYPE": 0, "CLASSIFICATION_TYPE": "U", "NORAD_CAT_ID": 66484, "ELEMENT_SET_NO": 999, "REV_AT_EPOCH": 420, "BSTAR": -0.030604, "MEAN_MOTION_DOT": -0.02109587, "MEAN_MOTION_DDOT": 0}, "tle": {"line1": "1 66484U 25262AE  25337.83335647 -.02109587  00000+0 -30604-1 0  9991", "line2": "2 66484  42.9996 123.1346 0001390 278.0771   6.4373 15.58160438  4204"}}, "geometry": {"type": "Point", "coordinates": [78.3664279728035, -32.36220620425785]}}, {"type": "Feature", "properties": {"norad_id": 66485, "name": "STARLINK-34774", "group": "last-30-days", "lat": 39.44038610481938, "lon": -122.3329255448915, "alt_km": 357.77621863180775, "timestamp": "2025-12-04T03:47:53.335862+00:00", "meta": {"OBJECT_NAME": "STARLINK-34774", "OBJECT_ID": "2025-263A", "EPOCH": "2025-12-03T20:00:01.999008", "MEAN_MOTION": 15.6993817, "ECCENTRICITY": 0.0001657, "INCLINATION": 42.9991, "RA_OF_ASC_NODE": 177.6411, "ARG_OF_PERICENTER": 280.997, "MEAN_ANOMALY": 110.0728, "EPHEMERIS_TYPE": 0, "CLASSIFICATION_TYPE": "U", "NORAD_CAT_ID": 66485, "ELEMENT_SET_NO": 999, "REV_AT_EPOCH": 420, "BSTAR": -0.017864, "MEAN_MOTION_DOT": -0.01952472, "MEAN_MOTION_DDOT": 0}, "tle": {"line1": "1 66485U 25263A   25337.83335647 -.01952472  00000+0 -17864-1 0  9994", "line2": "2 66485  42.9991 177.6411 0001657 280.9970 110.0728 15.69938170  4200"}}, "geometry": {"type": "Point", "coordinates": [-122.3329255448915, 39.44038610481938]}}, {"type": "Feature", "properties": {"norad_id": 66486, "name": "STARLINK-34844", "group": "last-30-days", "lat": 40.030057486029754, "lon": -119.96742658490923, "alt_km": 357.7230856508204, "timestamp": "2025-12-04T03:47:53.335873+00:00", "meta": {"OBJECT_NAME": "STARLINK-34844", "OBJECT_ID": "2025-263B", "EPOCH": "2025-12-03T20:00:01.999008", "MEAN_MOTION": 15.69959615, "ECCENTRICITY": 0.0001559, "INCLINATION": 42.999, "RA_OF_ASC_NODE": 177.6354, "ARG_OF_PERICENTER": 274.6256, "MEAN_ANOMALY": 118.3471, "EPHEMERIS_TYPE": 0, "CLASSIFICATION_TYPE": "U", "NORAD_CAT_ID": 66486, "ELEMENT_SET_NO": 999, "REV_AT_EPOCH": 415, "BSTAR": -0.018085, "MEAN_MOTION_DOT": -0.01975234, "MEAN_MOTION_DDOT": 0}, "tle": {"line1": "1 66486U 25263B   25337.83335647 -.01975234  00000+0 -18085-1 0  9992", "line2": "2 66486  42.9990 177.6354 0001559 274.6256 118.3471 15.69959615  4151"}}, "geometry": {"type": "Point", "coordinates": [-119.96742658490923, 40.030057486029754]}}, {"type": "Feature", "properties": {"norad_id": 66487, "name": "STARLINK-34733", "group": "last-30-days", "lat": 40.58734771817185, "lon": -117.48748696358716, "alt_km": 357.7836662168065, "timestamp": "2025-12-04T03:47:53.335885+00:00", "meta": {"OBJECT_NAME": "STARLINK-34733", "OBJECT_ID": "2025-263C", "EPOCH": "2025-12-03T08:00:01.999872", "MEAN_MOTION": 15.72094082, "ECCENTRICITY": 0.00016626, "INCLINATION": 42.9994, "RA_OF_ASC_NODE": 180.6432, "ARG_OF_PERICENTER": 275.4139, "MEAN_ANOMALY": 168.2238, "EPHEMERIS_TYPE": 0, "CLASSIFICATION_TYPE": "U", "NORAD_CAT_ID": 66487, "ELEMENT_SET_NO": 999, "REV_AT_EPOCH": 412, "BSTAR": -0.016625488, "MEAN_MOTION_DOT": -0.01987024, "MEAN_MOTION_DDOT": 0}, "tle": {"line1": "1 66487U 25263C   25337.33335648 -.01987024  00000+0 -16625-1 0  9997", "line2": "2 66487  42.9994 180.6432 0001662 275.4139 168.2238 15.72094082  4125"}}, "geometry": {"type": "Point", "coordinates": [-117.48748696358716, 40.58734771817185]}}, {"type": "Feature", "properties": {"norad_id": 66488, "name": "STARLINK-35515", "group": "last-30-days", "lat": 41.063061488154275, "lon": -115.10330474010591, "alt_km": 357.5826314797896, "timestamp": "2025-12-04T03:47:53.335895+00:00", "meta": {"OBJECT_NAME": "STARLINK-35515", "OBJECT_ID": "2025-263D", "EPOCH": "2025-12-03T20:00:01.999008", "MEAN_MOTION": 15.69950529, "ECCENTRICITY": 0.0001549, "INCLINATION": 42.999, "RA_OF_ASC_NODE": 177.6262, "ARG_OF_PERICENTER": 277.8948, "MEAN_ANOMALY": 118.927, "EPHEMERIS_TYPE": 0, "CLASSIFICATION_TYPE": "U", "NORAD_CAT_ID": 66488, "ELEMENT_SET_NO": 999, "REV_AT_EPOCH": 420, "BSTAR": -0.018084, "MEAN_MOTION_DOT": -0.01974454, "MEAN_MOTION_DDOT": 0}, "tle": {"line1": "1 66488U 25263D   25337.83335647 -.01974454  00000+0 -18084-1 0  9996", "line2": "2 66488  42.9990 177.6262 0001549 277.8948 118.9270 15.69950529  4207"}}, "geometry": {"type": "Point", "coordinates": [-115.10330474010591, 41.063061488154275]}}]}